SatCatId,ObjectName,LaunchYear,OrbitalPeriod,LaunchMass,StatusCode,Inclination,Status,UcsData,OrbitClassEstimated,LaunchSiteCountry,Owner,UseType,Purpose,LaunchVehicleClass,TLE1,TLE2,MeanMotion,Eccentricity,OrbitClass
45436,ONEWEB-0095,2020,109.81,148.0,+,87.89,Active,1,LEO,Kazakhstan,UK,Commercial,Communications,Soyuz,1 45436U 20020N   25015.29691436  .00000418  00000+0  11437-2 0  9999,2 45436  87.8907 124.2960 0002220  90.3100 269.8283 13.11413982234792,13.11413982,0.000222,LEO
45437,ONEWEB-0092,2020,109.8,148.0,+,87.89,Active,1,LEO,Kazakhstan,UK,Commercial,Communications,Soyuz,1 45437U 20020P   25015.34509620  .00000173  00000+0  45307-3 0  9991,2 45437  87.8910 124.2730 0001744  97.3045 262.8281 13.11418984234919,13.11418984,0.0001744,LEO
45438,ONEWEB-0085,2020,109.81,148.0,+,87.89,Active,1,LEO,Kazakhstan,UK,Commercial,Communications,Soyuz,1 45438U 20020Q   25015.83255348  .00000387  00000+0  10558-2 0  9997,2 45438  87.8909 124.1848 0001628 108.2726 251.8580 13.11414166234879,13.11414166,0.0001628,LEO
45439,ONEWEB-0096,2020,109.81,148.0,+,87.89,Active,1,LEO,Kazakhstan,UK,Commercial,Communications,Soyuz,1 45439U 20020R   25015.38323877 -.00000010  00000+0 -64737-4 0  9996,2 45439  87.8908 124.2418 0001403 111.6264 248.5013 13.11413939234791,13.11413939,0.0001403,LEO
45440,ONEWEB-0037,2020,109.8,148.0,+,87.89,Active,1,LEO,Kazakhstan,UK,Commercial,Communications,Soyuz,1 45440U 20020S   25015.28830282  .00000621  00000+0  17163-2 0  9995,2 45440  87.8905 124.2319 0001663 101.8007 258.3308 13.11416032234810,13.11416032,0.0001663,LEO
45441,ONEWEB-0042,2020,109.81,148.0,+,87.89,Active,1,LEO,Kazakhstan,UK,Commercial,Communications,Soyuz,1 45441U 20020T   25015.83071682  .00000393  00000+0  10729-2 0  9995,2 45441  87.8911 124.1650 0001581 108.3694 251.7606 13.11413804234865,13.11413804,0.0001581,LEO
45442,ONEWEB-0098,2020,109.81,148.0,+,87.89,Active,1,LEO,Kazakhstan,UK,Commercial,Communications,Soyuz,1 45442U 20020U   25015.82407421  .00000563  00000+0  15537-2 0  9990,2 45442  87.8909 124.1756 0001861 111.1839 248.9488 13.11415514234837,13.11415514,0.0001861,LEO
45443,ONEWEB-0055,2020,109.8,148.0,+,87.89,Active,1,LEO,Kazakhstan,UK,Commercial,Communications,Soyuz,1 45443U 20020V   25015.80964397  .00000359  00000+0  97723-3 0  9990,2 45443  87.8909 124.1814 0001653 109.6108 250.5199 13.11421923234810,13.11421923,0.0001653,LEO
45444,ONEWEB-0093,2020,109.8,148.0,+,87.89,Active,1,LEO,Kazakhstan,UK,Commercial,Communications,Soyuz,1 45444U 20020W   25015.78506204 -.00000475  00000+0 -13751-2 0  9996,2 45444  87.8910 124.1691 0001499 114.8188 245.3095 13.11417453234876,13.11417453,0.0001499,LEO
45445,ONEWEB-0029,2020,109.8,148.0,+,87.89,Active,1,LEO,Kazakhstan,UK,Commercial,Communications,Soyuz,1 45445U 20020X   25015.34594641  .00000226  00000+0  60234-3 0  9992,2 45445  87.8910 124.2698 0001459 105.9418 254.1871 13.11417902234787,13.11417902,0.0001459,LEO
45446,ONEWEB-0068,2020,109.8,148.0,+,87.89,Active,1,LEO,Kazakhstan,UK,Commercial,Communications,Soyuz,1 45446U 20020Y   25015.78415512 -.00000540  00000+0 -15593-2 0  9998,2 45446  87.8909 124.1706 0001458 108.9579 251.1707 13.11432431234795,13.11432431,0.0001458,LEO
45447,ONEWEB-0046,2020,109.81,148.0,+,87.89,Active,1,LEO,Kazakhstan,UK,Commercial,Communications,Soyuz,1 45447U 20020Z   25015.31880161 -.00000430  00000+0 -12487-2 0  9991,2 45447  87.8910 124.2727 0001543  96.1180 264.0124 13.11414531234734,13.11414531,0.0001543,LEO
45448,ONEWEB-0063,2020,109.8,148.0,+,87.89,Active,1,LEO,Kazakhstan,UK,Commercial,Communications,Soyuz,1 45448U 20020AA  25015.80542148  .00000189  00000+0  49745-3 0  9993,2 45448  87.8909 124.1753 0001771  97.9782 262.1547 13.11417106234886,13.11417106,0.0001771,LEO
45449,ONEWEB-0019,2020,109.8,148.0,+,87.89,Active,1,LEO,Kazakhstan,UK,Commercial,Communications,Soyuz,1 45449U 20020AB  25015.32219929 -.00000455  00000+0 -13199-2 0  9990,2 45449  87.8913 124.2829 0001816 107.5625 252.5702 13.11415796234666,13.11415796,0.0001816,LEO
45450,ONEWEB-0094,2020,109.29,148.0,+,87.91,Active,1,LEO,Kazakhstan,UK,Commercial,Communications,Soyuz,1 45450U 20020AC  25015.32063330  .00000085  00000+0  18596-3 0  9999,2 45450  87.9100 109.0145 0001716 103.1973 256.9350 13.17646472238110,13.17646472,0.0001716,LEO
45451,ONEWEB-0087,2020,109.8,148.0,+,87.89,Active,1,LEO,Kazakhstan,UK,Commercial,Communications,Soyuz,1 45451U 20020AD  25015.81545844  .00000533  00000+0  14692-2 0  9999,2 45451  87.8903 124.1351 0001393 105.4089 254.7193 13.11416584234785,13.11416584,0.0001393,LEO
45452,ONEWEB-0082,2020,109.8,148.0,+,87.89,Active,1,LEO,Kazakhstan,UK,Commercial,Communications,Soyuz,1 45452U 20020AE  25015.81220561  .00000407  00000+0  11127-2 0  9996,2 45452  87.8910 124.1497 0001582 111.9220 248.2076 13.11416620234873,13.1141662,0.0001582,LEO
45453,ONEWEB-0050,2020,96.44,148.0,P,88.0,Active,1,LEO,Kazakhstan,UK,Commercial,Communications,Soyuz,1 45453U 20020AF  25015.36747007  .00006123  00000+0  58559-3 0  9998,2 45453  88.0047 334.2976 0005175  64.3175 295.8589 14.93084474263245,14.93084474,0.0005175,LEO
45454,ONEWEB-0034,2020,109.81,148.0,+,87.89,Active,1,LEO,Kazakhstan,UK,Commercial,Communications,Soyuz,1 45454U 20020AG  25015.37646026  .00000266  00000+0  71394-3 0  9993,2 45454  87.8907 124.2554 0001626 105.1109 255.0199 13.11413505234721,13.11413505,0.0001626,LEO
45455,ONEWEB-0060,2020,109.8,148.0,+,87.89,Active,1,LEO,Kazakhstan,UK,Commercial,Communications,Soyuz,1 45455U 20020AH  25015.34268654  .00000057  00000+0  12610-3 0  9992,2 45455  87.8914 124.2847 0001696 100.5577 259.5742 13.11417580234674,13.1141758,0.0001696,LEO
45456,ONEWEB-0086,2020,109.8,148.0,+,87.89,Active,1,LEO,Kazakhstan,UK,Commercial,Communications,Soyuz,1 45456U 20020AJ  25015.32558754 -.00000461  00000+0 -13357-2 0  9993,2 45456  87.8909 124.2654 0001237 107.3661 252.7602 13.11416195234733,13.11416195,0.0001237,LEO
45457,ONEWEB-0088,2020,109.81,148.0,+,87.89,Active,1,LEO,Kazakhstan,UK,Commercial,Communications,Soyuz,1 45457U 20020AK  25015.30355042  .00000144  00000+0  37156-3 0  9997,2 45457  87.8903 124.2261 0001498 103.4644 256.6651 13.11413784234669,13.11413784,0.0001498,LEO
45460,YAOGAN-30 07A,2020,96.1,-1.0,+,34.99,Active,1,LEO,PRC,China,Military,Earth Observation,Long March,1 45460U 20021A   25015.61252215  .00004650  00000+0  38439-3 0  9995,2 45460  34.9949 116.2485 0004562 158.1641 201.9260 14.98381419262759,14.98381419,0.0004562,LEO
45461,YAOGAN-30 07B,2020,96.11,-1.0,+,34.99,Active,1,LEO,PRC,China,Military,Earth Observation,Long March,1 45461U 20021B   25015.65973457  .00004735  00000+0  39180-3 0  9996,2 45461  34.9944 115.6290 0002006  44.9587 315.1283 14.98351611262725,14.98351611,0.0002006,LEO
45462,YAOGAN-30 07C,2020,96.11,-1.0,+,35.0,Active,1,LEO,PRC,China,Military,Earth Observation,Long March,1 45462U 20021C   25015.63685213  .00004719  00000+0  39045-3 0  9997,2 45462  34.9959 113.7601 0002798 212.3589 147.6947 14.98350280262746,14.9835028,0.0002798,LEO
45465,AEHF-6 (USA 298),2020,1436.18,6169.0,+,3.72,Active,1,GSO,USA,USA,Military,Communications,Atlas,1 45465U 20022B   25015.39421387 -.00000297  00000+0  00000+0 0  9997,2 45465   3.7222 298.1960 0049477   6.3145  90.1167  1.00266068 17828,1.00266068,0.0049477,GSO
45531,STARLINK-1329,2020,95.59,227.0,+,53.05,Active,1,LEO,USA,USA,Commercial,Communications,Falcon,1 45531U 20025A   25015.77104542  .00000371  00000+0  43804-4 0  9993,2 45531  53.0544 182.7282 0001167  95.4848 264.6275 15.06393095261501,15.06393095,0.0001167,LEO
45532,STARLINK-1338,2020,95.59,227.0,+,53.05,Active,1,LEO,USA,USA,Commercial,Communications,Falcon,1 45532U 20025B   25015.78209665 -.00000087  00000+0  13064-4 0  9997,2 45532  53.0549 182.6754 0001266  87.7900 272.3234 15.06394330261529,15.0639433,0.0001266,LEO
45534,STARLINK-1341,2020,90.99,227.0,P,53.04,Active,1,LEO,USA,USA,Commercial,Communications,Falcon,1 45534U 20025D   25015.91667824  .00215710  00000+0  98349-3 0  9997,2 45534  53.0427 156.1065 0004276 317.2370 126.9888 15.82666388261891,15.82666388,0.0004276,LEO
45535,STARLINK-1350,2020,94.6,227.0,+,53.06,Active,1,LEO,USA,USA,Commercial,Communications,Falcon,1 45535U 20025E   25015.59621343  .00011579  00000+0  51223-3 0  9995,2 45535  53.0631 179.1556 0001552 105.7287 254.3880 15.22129111262149,15.22129111,0.0001552,LEO
45536,STARLINK-1352,2020,95.43,227.0,+,53.05,Active,1,LEO,USA,USA,Commercial,Communications,Falcon,1 45536U 20025F   25015.74470255  .00005008  00000+0  33096-3 0  9995,2 45536  53.0523 182.1018 0002929 150.8473 209.2681 15.09017089261528,15.09017089,0.0002929,LEO
45538,STARLINK-1362,2020,95.59,227.0,+,53.05,Active,1,LEO,USA,USA,Commercial,Communications,Falcon,1 45538U 20025H   25015.61525252  .00000950  00000+0  82686-4 0  9992,2 45538  53.0543 183.1462 0001354  94.8058 265.3086 15.06396016262084,15.06396016,0.0001354,LEO
45540,STARLINK-1368,2020,95.59,227.0,+,53.05,Active,1,LEO,USA,USA,Commercial,Communications,Falcon,1 45540U 20025K   25015.48722410 -.00000106  00000+0  11777-4 0  9992,2 45540  53.0536 184.0041 0001389  88.7467 271.3681 15.06393794262051,15.06393794,0.0001389,LEO
45541,STARLINK-1369,2020,93.99,227.0,P,53.05,Active,1,LEO,USA,USA,Commercial,Communications,Falcon,1 45541U 20025L   25015.91667824  .01264998  00000+0  36024-1 0  9998,2 45541  53.0506 180.0603 0001355  74.8266  32.7207 15.32815674261568,15.32815674,0.0001355,LEO
45542,STARLINK-1371,2020,95.59,227.0,+,53.05,Active,1,LEO,USA,USA,Commercial,Communications,Falcon,1 45542U 20025M   25015.72312756 -.00000450  00000+0 -11303-4 0  9997,2 45542  53.0546 182.9413 0001174  85.8209 274.2914 15.06390338261509,15.06390338,0.0001174,LEO
45543,STARLINK-1372,2020,95.59,227.0,+,53.05,Active,1,LEO,USA,USA,Commercial,Communications,Falcon,1 45543U 20025N   25015.82632283 -.00000182  00000+0  66618-5 0  9990,2 45543  53.0536 182.4824 0001321 105.3966 254.7169 15.06394891261527,15.06394891,0.0001321,LEO
